{
 "type": "FeatureCollection",
 "features": [
  {
   "type": "Feature",
   "properties": {
    "name": "Denisovans (Altai)",
    "fromYear": -200000,
    "toYear": -50000,
    "colour": "#6aa0d8"
   },
   "geometry": {
    "type": "Polygon",
    "coordinates": [
     [
      [
       81,
       49.5
      ],
      [
       81,
       53
      ],
      [
       88,
       53
      ],
      [
       88,
       49.5
      ],
      [
       81,
       49.5
      ]
     ]
    ]
   }
  },
  {
   "type": "Feature",
   "properties": {
    "name": "Denisovans (fossil sites, schematic)",
    "fromYear": -165000,
    "toYear": -32000,
    "colour": "#6aa0d8"
   },
   "geometry": {
    "type": "Polygon",
    "coordinates": [
     [
      [
       84,
       52
      ],
      [
       100,
       50
      ],
      [
       128,
       48
      ],
      [
       131,
       42
      ],
      [
       122,
       34
      ],
      [
       121,
       22
      ],
      [
       106,
       18
      ],
      [
       100,
       19
      ],
      [
       97,
       28
      ],
      [
       98,
       34
      ],
      [
       88,
       40
      ],
      [
       84,
       47
      ],
      [
       84,
       52
      ]
     ]
    ]
   }
  },
  {
   "type": "Feature",
   "properties": {
    "name": "Denisovans (inferred from living people's DNA)",
    "fromYear": -60000,
    "toYear": -30000,
    "colour": "#3f6f9c"
   },
   "geometry": {
    "type": "Polygon",
    "coordinates": [
     [
      [
       94,
       20
      ],
      [
       110,
       22
      ],
      [
       122,
       18
      ],
      [
       127,
       6
      ],
      [
       142,
       -2
      ],
      [
       151,
       -8
      ],
      [
       146,
       -12
      ],
      [
       132,
       -10
      ],
      [
       118,
       -9
      ],
      [
       105,
       -8
      ],
      [
       97,
       2
      ],
      [
       97,
       10
      ],
      [
       94,
       20
      ]
     ]
    ]
   }
  }
 ]
}