{
 "type": "FeatureCollection",
 "features": [
  {
   "type": "Feature",
   "properties": {
    "name": "Homo sapiens (Africa)",
    "fromYear": -315000,
    "toYear": 0,
    "colour": "#7fbf6a"
   },
   "geometry": {
    "type": "Polygon",
    "coordinates": [
     [
      [
       -10,
       35
      ],
      [
       10,
       33
      ],
      [
       32,
       32
      ],
      [
       37,
       22
      ],
      [
       44,
       12
      ],
      [
       51,
       11
      ],
      [
       41,
       -2
      ],
      [
       40,
       -12
      ],
      [
       33,
       -26
      ],
      [
       20,
       -35
      ],
      [
       15,
       -30
      ],
      [
       13,
       -12
      ],
      [
       9,
       4
      ],
      [
       -5,
       5
      ],
      [
       -17,
       10
      ],
      [
       -17,
       21
      ],
      [
       -13,
       28
      ],
      [
       -10,
       35
      ]
     ]
    ]
   }
  },
  {
   "type": "Feature",
   "properties": {
    "name": "Early sapiens in the Levant (debated exits)",
    "fromYear": -190000,
    "toYear": -90000,
    "colour": "#a8d890"
   },
   "geometry": {
    "type": "Polygon",
    "coordinates": [
     [
      [
       34,
       30
      ],
      [
       35.5,
       36
      ],
      [
       40,
       37
      ],
      [
       44,
       33
      ],
      [
       36,
       29
      ],
      [
       34,
       30
      ]
     ]
    ]
   }
  },
  {
   "type": "Feature",
   "properties": {
    "name": "Homo sapiens (South & Southeast Asia)",
    "fromYear": -60000,
    "toYear": 0,
    "colour": "#7fbf6a"
   },
   "geometry": {
    "type": "Polygon",
    "coordinates": [
     [
      [
       43,
       12
      ],
      [
       55,
       17
      ],
      [
       58,
       24
      ],
      [
       64,
       26
      ],
      [
       70,
       34
      ],
      [
       78,
       33
      ],
      [
       91,
       27
      ],
      [
       99,
       22
      ],
      [
       99,
       12
      ],
      [
       104,
       1
      ],
      [
       105,
       -6
      ],
      [
       118,
       -8
      ],
      [
       119,
       5
      ],
      [
       80,
       8
      ],
      [
       60,
       22
      ],
      [
       42,
       16
      ],
      [
       43,
       12
      ]
     ]
    ]
   }
  },
  {
   "type": "Feature",
   "properties": {
    "name": "Homo sapiens (Sahul)",
    "fromYear": -50000,
    "toYear": 0,
    "colour": "#7fbf6a"
   },
   "geometry": {
    "type": "Polygon",
    "coordinates": [
     [
      [
       131,
       -10.5
      ],
      [
       142,
       -11
      ],
      [
       147,
       -6
      ],
      [
       141,
       -2
      ],
      [
       150,
       -8
      ],
      [
       146,
       -18
      ],
      [
       153,
       -28
      ],
      [
       146,
       -38
      ],
      [
       117,
       -35
      ],
      [
       114,
       -22
      ],
      [
       126,
       -14
      ],
      [
       131,
       -10.5
      ]
     ]
    ]
   }
  },
  {
   "type": "Feature",
   "properties": {
    "name": "Homo sapiens (Europe & Near East)",
    "fromYear": -46000,
    "toYear": 0,
    "colour": "#7fbf6a"
   },
   "geometry": {
    "type": "Polygon",
    "coordinates": [
     [
      [
       -9.5,
       36.5
      ],
      [
       -9,
       44
      ],
      [
       -3,
       54
      ],
      [
       10,
       60
      ],
      [
       28,
       65
      ],
      [
       50,
       64
      ],
      [
       60,
       56
      ],
      [
       50,
       46
      ],
      [
       44,
       41
      ],
      [
       36,
       37
      ],
      [
       24,
       38
      ],
      [
       10,
       37
      ],
      [
       -9.5,
       36.5
      ]
     ]
    ]
   }
  },
  {
   "type": "Feature",
   "properties": {
    "name": "Homo sapiens (North & East Asia)",
    "fromYear": -45000,
    "toYear": 0,
    "colour": "#7fbf6a"
   },
   "geometry": {
    "type": "Polygon",
    "coordinates": [
     [
      [
       55,
       40
      ],
      [
       60,
       58
      ],
      [
       70,
       68
      ],
      [
       125,
       72
      ],
      [
       160,
       68
      ],
      [
       175,
       62
      ],
      [
       132,
       43
      ],
      [
       122,
       30
      ],
      [
       110,
       25
      ],
      [
       90,
       30
      ],
      [
       72,
       40
      ],
      [
       55,
       40
      ]
     ]
    ]
   }
  },
  {
   "type": "Feature",
   "properties": {
    "name": "Homo sapiens (the Americas)",
    "fromYear": -16000,
    "toYear": 0,
    "colour": "#7fbf6a"
   },
   "geometry": {
    "type": "Polygon",
    "coordinates": [
     [
      [
       -168,
       66
      ],
      [
       -140,
       70
      ],
      [
       -90,
       70
      ],
      [
       -65,
       60
      ],
      [
       -55,
       45
      ],
      [
       -80,
       30
      ],
      [
       -60,
       10
      ],
      [
       -35,
       0
      ],
      [
       -55,
       -35
      ],
      [
       -68,
       -55
      ],
      [
       -75,
       -45
      ],
      [
       -77,
       -15
      ],
      [
       -80,
       5
      ],
      [
       -106,
       18
      ],
      [
       -121,
       35
      ],
      [
       -128,
       50
      ],
      [
       -150,
       60
      ],
      [
       -168,
       66
      ]
     ]
    ]
   }
  }
 ]
}